SatCatId,ObjectName,LaunchYear,OrbitalPeriod,LaunchMass,StatusCode,Inclination,Status,UcsData,OrbitClassEstimated,LaunchSiteCountry,Owner,UseType,Purpose,LaunchVehicleClass,TLE1,TLE2,MeanMotion,Eccentricity,OrbitClass
53693,STARLINK-4566,2022,95.92,260.0,+,97.65,Active,1,LEO,USA,USA,Commercial,Communications,Falcon,1 53693U 22105AX  25019.66895080  .00000157  00000+0  16804-4 0  9990,2 53693  97.6539 263.4149 0004551  44.4335 315.7254 15.01260628131401,15.01260628,0.0004551,LEO
53698,YAOGAN-33 02,2022,98.71,1040.0,+,98.19,Active,1,LEO,PRC,China,Military,Earth Observation,Long March,1 53698U 22106A   25019.87549921  .00000523  00000+0  12167-3 0  9993,2 53698  98.1854  30.2592 0003392  18.5866 341.5457 14.58848776126882,14.58848776,0.0003392,LEO
53700,STARLINK-4725,2022,95.44,260.0,+,53.22,Active,1,LEO,USA,USA,Commercial,Communications,Falcon,1 53700U 22107A   25019.18933660  .00000723  00000+0  63527-4 0  9998,2 53700  53.2201 304.5086 0001680 110.9801 249.1371 15.08836748132284,15.08836748,0.000168,LEO
53701,STARLINK-4711,2022,95.44,260.0,+,53.22,Active,1,LEO,USA,USA,Commercial,Communications,Falcon,1 53701U 22107B   25019.05317299  .00001431  00000+0  10799-3 0  9998,2 53701  53.2168 305.0844 0001349  82.2846 277.8299 15.08840934132264,15.08840934,0.0001349,LEO
53702,STARLINK-4724,2022,95.44,260.0,+,53.22,Active,1,LEO,USA,USA,Commercial,Communications,Falcon,1 53702U 22107C   25019.47594758  .00002298  00000+0  16239-3 0  9999,2 53702  53.2176 288.5003 0001498  87.5106 272.6057 15.08841873131782,15.08841873,0.0001498,LEO
53703,STARLINK-4731,2022,95.44,260.0,+,53.22,Active,1,LEO,USA,USA,Commercial,Communications,Falcon,1 53703U 22107D   25019.20038162 -.00002959  00000+0 -16791-3 0  9992,2 53703  53.2180 304.5812 0001494  95.6553 264.4610 15.08830916132283,15.08830916,0.0001494,LEO
53704,STARLINK-4714,2022,95.44,260.0,+,53.22,Active,1,LEO,USA,USA,Commercial,Communications,Falcon,1 53704U 22107E   25019.51324744  .00007847  00000+0  51040-3 0  9996,2 53704  53.2167 303.6851 0001322 102.7017 257.4123 15.08851858131577,15.08851858,0.0001322,LEO
53705,STARLINK-4717,2022,95.44,260.0,+,53.22,Active,1,LEO,USA,USA,Commercial,Communications,Falcon,1 53705U 22107F   25019.50956410  .00006999  00000+0  45724-3 0  9996,2 53705  53.2170 303.6620 0001384 100.1090 260.0059 15.08852249131570,15.08852249,0.0001384,LEO
53706,STARLINK-4716,2022,95.44,260.0,+,53.22,Active,1,LEO,USA,USA,Commercial,Communications,Falcon,1 53706U 22107G   25019.16363312  .00000475  00000+0  47918-4 0  9993,2 53706  53.2200 305.0649 0001499 100.3773 259.7389 15.08836944132272,15.08836944,0.0001499,LEO
53707,STARLINK-4667,2022,95.44,260.0,+,53.22,Active,1,LEO,USA,USA,Commercial,Communications,Falcon,1 53707U 22107H   25019.15579989  .00001128  00000+0  88951-4 0  9990,2 53707  53.2169 290.0487 0001302  95.7758 264.3382 15.08841770132484,15.0884177,0.0001302,LEO
53708,STARLINK-4694,2022,95.44,260.0,+,53.22,Active,1,LEO,USA,USA,Commercial,Communications,Falcon,1 53708U 22107J   25019.00859065 -.00000239  00000+0  31146-5 0  9999,2 53708  53.2172 290.5611 0001730  96.7134 263.4055 15.08831707132461,15.08831707,0.000173,LEO
53709,STARLINK-4685,2022,95.44,260.0,+,53.22,Active,1,LEO,USA,USA,Commercial,Communications,Falcon,1 53709U 22107K   25019.12816952  .00000687  00000+0  61246-4 0  9990,2 53709  53.2191 309.8545 0001460  96.6155 263.5003 15.08836211131890,15.08836211,0.000146,LEO
53711,STARLINK-4627,2022,95.44,260.0,+,53.22,Active,1,LEO,USA,USA,Commercial,Communications,Falcon,1 53711U 22107M   25019.20545943 -.00000103  00000+0  11625-4 0  9991,2 53711  53.2203 309.6148 0001437 101.0803 259.0351 15.08835614131903,15.08835614,0.0001437,LEO
53712,STARLINK-4683,2022,95.44,260.0,+,53.22,Active,1,LEO,USA,USA,Commercial,Communications,Falcon,1 53712U 22107N   25019.51086289  .00002803  00000+0  19412-3 0  9998,2 53712  53.2191 307.9893 0001565  83.8812 276.2358 15.08846121131517,15.08846121,0.0001565,LEO
53713,STARLINK-4698,2022,94.01,260.0,P,53.21,Active,1,LEO,USA,USA,Commercial,Communications,Falcon,1 53713U 22107P   25019.79710383  .00159747  00000+0  49995-2 0  9996,2 53713  53.2106 298.5895 0002760 133.7598 226.3633 15.32024431131673,15.32024431,0.000276,LEO
53715,STARLINK-4686,2022,95.44,260.0,+,53.22,Active,1,LEO,USA,USA,Commercial,Communications,Falcon,1 53715U 22107R   25019.19946718  .00001391  00000+0  10550-3 0  9992,2 53715  53.2185 314.5546 0001478  78.4430 281.6728 15.08838954131843,15.08838954,0.0001478,LEO
53716,STARLINK-4699,2022,95.44,260.0,+,53.22,Active,1,LEO,USA,USA,Commercial,Communications,Falcon,1 53716U 22107S   25019.52698113  .00008745  00000+0  56681-3 0  9998,2 53716  53.2176 313.0472 0001507  85.7901 274.3264 15.08844381131433,15.08844381,0.0001507,LEO
53718,STARLINK-4695,2022,95.44,260.0,+,53.22,Active,1,LEO,USA,USA,Commercial,Communications,Falcon,1 53718U 22107U   25019.51696966  .00000117  00000+0  25457-4 0  9996,2 53718  53.2211 313.6802 0001557  95.7824 264.3346 15.08837972131425,15.08837972,0.0001557,LEO
53719,STARLINK-4644,2022,95.44,260.0,+,53.22,Active,1,LEO,USA,USA,Commercial,Communications,Falcon,1 53719U 22107V   25019.45245216  .00001538  00000+0  11471-3 0  9996,2 53719  53.2176 283.3234 0001418  95.3331 264.7823 15.08847059131839,15.08847059,0.0001418,LEO
53720,STARLINK-4642,2022,95.44,260.0,+,53.22,Active,1,LEO,USA,USA,Commercial,Communications,Falcon,1 53720U 22107W   25019.53435090  .00002104  00000+0  15025-3 0  9997,2 53720  53.2197 313.0944 0001760  82.9509 277.1683 15.08845216131433,15.08845216,0.000176,LEO
53721,STARLINK-4707,2022,95.44,260.0,+,53.22,Active,1,LEO,USA,USA,Commercial,Communications,Falcon,1 53721U 22107X   25019.07804248  .00000220  00000+0  31934-4 0  9997,2 53721  53.2199 315.2119 0001641  90.1025 270.0155 15.08837464131821,15.08837464,0.0001641,LEO
53722,STARLINK-4700,2022,95.44,260.0,+,53.22,Active,1,LEO,USA,USA,Commercial,Communications,Falcon,1 53722U 22107Y   25019.21789280  .00002352  00000+0  16581-3 0  9990,2 53722  53.2180 314.6688 0001632  84.7307 275.3872 15.08842386131832,15.08842386,0.0001632,LEO
53723,STARLINK-4705,2022,95.44,260.0,+,53.22,Active,1,LEO,USA,USA,Commercial,Communications,Falcon,1 53723U 22107Z   25019.25834199 -.00000059  00000+0  14378-4 0  9991,2 53723  53.2204 314.2172 0001667  80.9720 279.1461 15.08836995131991,15.08836995,0.0001667,LEO
53724,STARLINK-4663,2022,95.44,260.0,+,53.22,Active,1,LEO,USA,USA,Commercial,Communications,Falcon,1 53724U 22107AA  25019.20683124  .00002010  00000+0  14433-3 0  9996,2 53724  53.2191 314.6009 0001373  92.4158 267.6991 15.08845043131845,15.08845043,0.0001373,LEO
53726,STARLINK-4697,2022,95.44,260.0,+,53.22,Active,1,LEO,USA,USA,Commercial,Communications,Falcon,1 53726U 22107AC  25019.21420716 -.00001456  00000+0 -73411-4 0  9992,2 53726  53.2190 314.6493 0001415  93.1496 266.9658 15.08835257131841,15.08835257,0.0001415,LEO
53727,STARLINK-4701,2022,95.44,260.0,+,53.22,Active,1,LEO,USA,USA,Commercial,Communications,Falcon,1 53727U 22107AD  25019.09277924  .00000494  00000+0  49144-4 0  9995,2 53727  53.2179 315.3105 0001428  83.4062 276.7093 15.08836026131962,15.08836026,0.0001428,LEO
53728,STARLINK-4640,2022,95.44,260.0,+,53.22,Active,1,LEO,USA,USA,Commercial,Communications,Falcon,1 53728U 22107AE  25019.81774290 -.00002756  00000+0 -15521-3 0  9990,2 53728  53.2183 312.0159 0001436  74.0270 286.0880 15.08815966131471,15.08815966,0.0001436,LEO
53729,STARLINK-4651,2022,95.44,260.0,+,53.22,Active,1,LEO,USA,USA,Commercial,Communications,Falcon,1 53729U 22107AF  25019.23631434  .00000675  00000+0  60527-4 0  9992,2 53729  53.2179 314.7852 0001437  89.6538 270.4619 15.08836288132014,15.08836288,0.0001437,LEO
53730,STARLINK-4641,2022,95.44,260.0,+,53.22,Active,1,LEO,USA,USA,Commercial,Communications,Falcon,1 53730U 22107AG  25019.82510694  .00000211  00000+0  31375-4 0  9998,2 53730  53.2177 312.0625 0001551 108.9482 251.1678 15.08836633131477,15.08836633,0.0001551,LEO
53731,STARLINK-4636,2022,95.44,260.0,+,53.22,Active,1,LEO,USA,USA,Commercial,Communications,Falcon,1 53731U 22107AH  25019.24000274 -.00000539  00000+0 -15809-4 0  9992,2 53731  53.2189 314.8076 0001390 101.3827 258.7321 15.08830602132011,15.08830602,0.000139,LEO
53732,STARLINK-4661,2022,95.44,260.0,+,53.22,Active,1,LEO,USA,USA,Commercial,Communications,Falcon,1 53732U 22107AJ  25019.82975733  .00002746  00000+0  19060-3 0  9990,2 53732  53.2188 312.0921 0002026  86.7604 273.3620 15.08836811131478,15.08836811,0.0002026,LEO
53733,STARLINK-4574,2022,95.44,260.0,+,53.22,Active,1,LEO,USA,USA,Commercial,Communications,Falcon,1 53733U 22107AK  25019.84354472  .00002499  00000+0  17507-3 0  9993,2 53733  53.2171 312.1722 0000883 108.3782 251.7306 15.08832890131472,15.0883289,8.83e-05,LEO
53734,STARLINK-4616,2022,95.44,260.0,+,53.22,Active,1,LEO,USA,USA,Commercial,Communications,Falcon,1 53734U 22107AL  25019.23263010  .00000026  00000+0  19741-4 0  9991,2 53734  53.2198 314.7656 0001504  90.1060 270.0105 15.08836599131385,15.08836599,0.0001504,LEO
53735,STARLINK-4618,2022,95.44,260.0,+,53.22,Active,1,LEO,USA,USA,Commercial,Communications,Falcon,1 53735U 22107AM  25019.14336084  .00000936  00000+0  76910-4 0  9995,2 53735  53.2193 324.9040 0001419  91.7201 268.3954 15.08835081131860,15.08835081,0.0001419,LEO
53736,STARLINK-4652,2022,95.44,260.0,+,53.22,Active,1,LEO,USA,USA,Commercial,Communications,Falcon,1 53736U 22107AN  25019.24368776 -.00000296  00000+0 -47859-6 0  9993,2 53736  53.2204 314.8358 0001463 103.7595 256.3560 15.08832570132011,15.0883257,0.0001463,LEO
53737,STARLINK-4646,2022,95.44,260.0,+,53.22,Active,1,LEO,USA,USA,Commercial,Communications,Falcon,1 53737U 22107AP  25019.14704799  .00000218  00000+0  31766-4 0  9992,2 53737  53.2196 324.9290 0001370  92.4741 267.6408 15.08832708132012,15.08832708,0.000137,LEO
